OBJECT_NAME,OBJECT_ID,EPOCH,MEAN_MOTION,ECCENTRICITY,INCLINATION,RA_OF_ASC_NODE,ARG_OF_PERICENTER,MEAN_ANOMALY,EPHEMERIS_TYPE,CLASSIFICATION_TYPE,NORAD_CAT_ID,ELEMENT_SET_NO,REV_AT_EPOCH,BSTAR,MEAN_MOTION_DOT,MEAN_MOTION_DDOT
SKYSAT-C1,2016-040C,2026-07-05T01:28:23.949984,15.36622026,.00014971,96.9551,216.8145,20.1771,339.9533,0,U,41601,999,56061,.42329528E-3,.15073E-3,0
LAPAN-A3,2016-040E,2026-07-05T06:28:59.822112,15.33230808,.00086782,97.1497,181.8232,319.0535,41.0055,0,U,41603,999,55758,.16105273E-3,.51E-4,0
GAOFEN-3,2016-049A,2026-07-05T07:55:45.130944,14.42218931,.00017146,98.4011,193.8426,91.4880,268.6507,0,U,41727,999,52126,.12479272E-3,.368E-5,0
SKYSAT-C4,2016-058B,2026-07-04T07:46:12.417312,15.49141148,.00028545,96.9163,206.3834,134.2708,225.8779,0,U,41771,999,54812,.41239451E-3,.22372E-3,0
SKYSAT-C5,2016-058C,2026-07-04T20:09:45.697536,15.34736407,.0002198,97.0456,225.6942,183.2144,176.9087,0,U,41772,999,54645,.38858981E-3,.13017E-3,0
SKYSAT-C2,2016-058D,2026-07-04T18:39:45.406368,15.42495246,.00027832,97.0161,207.2138,28.9568,331.1835,0,U,41773,999,54776,.52036018E-3,.22506E-3,0
SKYSAT-C3,2016-058E,2026-07-05T01:22:17.192352,15.53353116,.0001713,96.8996,216.2241,133.4537,226.6861,0,U,41774,999,54888,.58771875E-3,.3714E-3,0
ALSAT-1B,2016-059C,2026-07-05T06:00:34.746624,14.72288188,.00095768,97.7750,194.2346,159.2564,200.9035,0,U,41785,999,52323,.4966225E-4,.267E-5,0
PATHFINDER 1,2016-059E,2026-07-04T22:20:02.590656,14.67685395,.00292118,97.8170,184.4063,147.2028,213.0998,0,U,41787,999,52231,.1596017E-3,.867E-5,0
SCATSAT 1,2016-059H,2026-07-05T03:14:34.013760,14.79571066,.00544436,98.1181,250.0859,188.8311,171.1947,0,U,41790,999,10424,.24749996E-3,.1843E-4,0
GOKTURK 1A,2016-073A,2026-07-05T07:18:12.935232,14.62788658,.00013878,98.1225,80.6930,78.7816,281.3542,0,U,41875,999,51147,.12461304E-3,.589E-5,0
RESOURCESAT-2A,2016-074A,2026-07-05T07:11:44.855808,14.21606760,.00029228,98.7520,259.6562,48.9245,311.2184,0,U,41877,999,49687,.55354599E-4,.77E-6,0
CARTOSAT-2D,2017-008A,2026-07-05T06:30:13.870368,15.19232876,.00051386,97.4091,245.2388,167.3972,192.7392,0,U,41948,999,52032,.36301904E-3,.7584E-4,0
SENTINEL-2B,2017-013A,2026-07-05T07:39:53.848800,14.30813081,.00012194,98.5686,260.8379,89.3506,270.7817,0,U,42063,999,48723,.50607216E-4,.89E-6,0
FORMOSAT-5,2017-049A,2026-07-05T06:13:12.456480,14.50905964,.00119948,98.2249,261.1672,33.4998,326.6953,0,U,42920,999,46929,.71446547E-4,.239E-5,0
SENTINEL-5P,2017-064A,2026-07-04T19:45:38.621088,14.19522247,.0001088,98.7928,127.8294,92.0337,268.0964,0,U,42969,999,45206,.67553483E-4,.98E-6,0
SKYSAT-C11,2017-068A,2026-07-04T15:38:36.096288,15.58849535,.000055,97.4374,335.2554,164.1646,195.9627,0,U,42987,999,48596,.59784918E-3,.46313E-3,0
SKYSAT-C10,2017-068B,2026-07-04T15:14:28.129920,15.34954592,.0001266,97.4530,322.6571,108.4549,251.6831,0,U,42988,999,48503,.56482026E-3,.19095E-3,0
SKYSAT-C9,2017-068C,2026-07-05T03:38:56.503968,15.42030350,.00092763,97.4452,324.2875,76.6476,283.5805,0,U,42989,999,48552,.48482021E-3,.20658E-3,0
SKYSAT-C8,2017-068D,2026-07-04T20:09:36.337824,15.37337781,.00011974,97.4548,322.7320,96.1071,264.0309,0,U,42990,999,48502,.47415956E-3,.17285E-3,0
SKYSAT-C7,2017-068E,2026-07-04T09:05:04.475328,15.37274879,.00065856,97.4560,323.2545,55.9275,304.2594,0,U,42991,999,48501,.43597651E-3,.15861E-3,0
SKYSAT-C6,2017-068F,2026-07-04T19:44:05.904384,15.34283314,.00052085,97.4596,323.6042,103.9495,256.2328,0,U,42992,999,48502,.47207554E-3,.15608E-3,0
CARTOSAT-2F,2018-004A,2026-07-05T07:42:34.600320,15.19219779,.0001922,97.4770,245.7789,155.8341,204.2984,0,U,43111,999,47008,.43221999E-3,.9038E-4,0
GAOFEN-1 02,2018-031A,2026-07-05T07:48:58.054752,14.76461825,.00020531,98.0514,248.8016,337.5466,22.5654,0,U,43259,999,44537,.13964477E-3,.92E-5,0
GAOFEN-1 03,2018-031B,2026-07-05T07:17:20.249376,14.76452916,.00031606,98.0509,248.6359,40.9207,319.2240,0,U,43260,999,44536,.13328023E-3,.876E-5,0
GAOFEN-1 04,2018-031D,2026-07-05T06:42:25.879680,14.76462685,.00017155,98.0515,248.8049,60.9506,299.1875,0,U,43262,999,44535,.20531508E-3,.1377E-4,0
SENTINEL-3B,2018-039A,2026-07-05T05:06:50.234688,14.26740289,.00009206,98.6240,253.4861,117.0798,243.0476,0,U,43437,999,42669,.85602827E-4,.164E-5,0
GAOFEN-5 01,2018-043A,2026-07-04T16:01:09.911712,14.60618723,.00026259,98.4581,157.6218,52.0777,308.0659,0,U,43461,999,43424,.11478406E-3,.509E-5,0
GAOFEN-6,2018-048A,2026-07-04T03:34:57.203616,14.76373246,.001202,98.0962,247.8248,112.9072,247.3408,0,U,43484,999,43589,.46409E-4,.27E-5,0
